[
  {
    "areacode": "411002",
    "areaname": "魏都区",
    "StationList": [
      { "stationname": "半截河", "sttaionno": "O5987", "areacode": "411002", "areaname": "魏都区", "type": "区域站", "lng": 113.8464, "lat": 34.0278, "elevation": 0, "isshow": "否" },
      { "stationname": "七里店", "sttaionno": "O5988", "areacode": "411002", "areaname": "魏都区", "type": "区域站", "lng": 113.7767, "lat": 34.0333, "elevation": 0, "isshow": "否" },
      { "stationname": "长村张", "sttaionno": "O6009", "areacode": "411002", "areaname": "魏都区", "type": "区域站", "lng": 113.785, "lat": 33.9828, "elevation": 0, "isshow": "否" }
    ]
  },
  {
    "areacode": "411023",
    "areaname": "建安区",
    "StationList": [
      { "stationname": "许昌", "sttaionno": "57089", "areacode": "411023", "areaname": "建安区", "type": "国家站", "lng": 113.93, "lat": 34.07, "elevation": 0, "isshow": "是" },
      { "stationname": "天和", "sttaionno": "O2345", "areacode": "411023", "areaname": "建安区", "type": "区域站", "lng": 113.8622, "lat": 33.9581, "elevation": 0, "isshow": "否" },
      { "stationname": "蒋李集", "sttaionno": "O2346", "areacode": "411023", "areaname": "建安区", "type": "区域站", "lng": 113.8406, "lat": 33.9183, "elevation": 0, "isshow": "否" },
      { "stationname": "茶庵李", "sttaionno": "O2347", "areacode": "411023", "areaname": "建安区", "type": "区域站", "lng": 113.9606, "lat": 34.0503, "elevation": 0, "isshow": "否" },
      { "stationname": "椹涧", "sttaionno": "O5991", "areacode": "411023", "areaname": "建安区", "type": "区域站", "lng": 113.6772, "lat": 34.0017, "elevation": 0, "isshow": "否" },
      { "stationname": "榆林", "sttaionno": "O5993", "areacode": "411023", "areaname": "建安区", "type": "区域站", "lng": 113.7314, "lat": 33.9242, "elevation": 0, "isshow": "否" },
      { "stationname": "苏桥", "sttaionno": "O5995", "areacode": "411023", "areaname": "建安区", "type": "区域站", "lng": 113.7847, "lat": 34.1397, "elevation": 0, "isshow": "否" },
      { "stationname": "尚集", "sttaionno": "O5996", "areacode": "411023", "areaname": "建安区", "type": "区域站", "lng": 113.8444, "lat": 34.0953, "elevation": 0, "isshow": "否" },
      { "stationname": "小召", "sttaionno": "O5999", "areacode": "411023", "areaname": "建安区", "type": "区域站", "lng": 113.8992, "lat": 34.1575, "elevation": 0, "isshow": "否" },
      { "stationname": "张潘", "sttaionno": "O6000", "areacode": "411023", "areaname": "建安区", "type": "区域站", "lng": 113.9911, "lat": 33.9967, "elevation": 0, "isshow": "否" },
      { "stationname": "陈曹", "sttaionno": "O6002", "areacode": "411023", "areaname": "建安区", "type": "区域站", "lng": 113.8517, "lat": 34.1097, "elevation": 0, "isshow": "否" },
      { "stationname": "桂村", "sttaionno": "O6003", "areacode": "411023", "areaname": "建安区", "type": "区域站", "lng": 113.6931, "lat": 34.1111, "elevation": 0, "isshow": "否" },
      { "stationname": "蒋官池", "sttaionno": "O6005", "areacode": "411023", "areaname": "建安区", "type": "区域站", "lng": 113.8517, "lat": 34, "elevation": 0, "isshow": "否" },
      { "stationname": "灵井", "sttaionno": "O6006", "areacode": "411023", "areaname": "建安区", "type": "区域站", "lng": 113.6822, "lat": 34.0647, "elevation": 0, "isshow": "否" },
      { "stationname": "艾庄", "sttaionno": "O6007", "areacode": "411023", "areaname": "建安区", "type": "区域站", "lng": 113.6497, "lat": 34.1469, "elevation": 0, "isshow": "否" },
      { "stationname": "河街", "sttaionno": "O6008", "areacode": "411023", "areaname": "建安区", "type": "区域站", "lng": 113.7606, "lat": 34.0683, "elevation": 0, "isshow": "否" }
    ]
  },
  {
    "areacode": "411024",
    "areaname": "鄢陵县",
    "StationList": [
      { "stationname": "鄢陵", "sttaionno": "57095", "areacode": "411024", "areaname": "鄢陵县", "type": "国家站", "lng": 114.15, "lat": 34.12, "elevation": 0, "isshow": "是" },
      { "stationname": "彭店", "sttaionno": "O2355", "areacode": "411024", "areaname": "鄢陵县", "type": "区域站", "lng": 114.1958, "lat": 34.1911, "elevation": 0, "isshow": "否" },
      { "stationname": "屯沟", "sttaionno": "O2356", "areacode": "411024", "areaname": "鄢陵县", "type": "区域站", "lng": 114.2242, "lat": 33.9217, "elevation": 0, "isshow": "否" },
      { "stationname": "龙源", "sttaionno": "O2357", "areacode": "411024", "areaname": "鄢陵县", "type": "区域站", "lng": 114.1133, "lat": 34.1486, "elevation": 0, "isshow": "否" },
      { "stationname": "程王村", "sttaionno": "O2927", "areacode": "411024", "areaname": "鄢陵县", "type": "区域站", "lng": 114.184638, "lat": 34.108882, "elevation": 0, "isshow": "否" },
      { "stationname": "安陵", "sttaionno": "O6078", "areacode": "411024", "areaname": "鄢陵县", "type": "区域站", "lng": 114.1906, "lat": 34.1036, "elevation": 0, "isshow": "否" },
      { "stationname": "陈化店", "sttaionno": "O6080", "areacode": "411024", "areaname": "鄢陵县", "type": "区域站", "lng": 114.08, "lat": 34.0817, "elevation": 0, "isshow": "否" },
      { "stationname": "鄢陵安陵植保站", "sttaionno": "O6081", "areacode": "411024", "areaname": "鄢陵县", "type": "区域站", "lng": 114.210757, "lat": 34.106986, "elevation": 0, "isshow": "否" },
      { "stationname": "马坊", "sttaionno": "O6082", "areacode": "411024", "areaname": "鄢陵县", "type": "区域站", "lng": 114.2181, "lat": 34.1497, "elevation": 0, "isshow": "否" },
      { "stationname": "南坞", "sttaionno": "O6084", "areacode": "411024", "areaname": "鄢陵县", "type": "区域站", "lng": 114.2581, "lat": 33.8972, "elevation": 0, "isshow": "否" },
      { "stationname": "陶城", "sttaionno": "O6086", "areacode": "411024", "areaname": "鄢陵县", "type": "区域站", "lng": 114.2375, "lat": 33.8247, "elevation": 0, "isshow": "否" },
      { "stationname": "望田", "sttaionno": "O6087", "areacode": "411024", "areaname": "鄢陵县", "type": "区域站", "lng": 114.1369, "lat": 33.8967, "elevation": 0, "isshow": "否" },
      { "stationname": "张桥", "sttaionno": "O6088", "areacode": "411024", "areaname": "鄢陵县", "type": "区域站", "lng": 114.2261, "lat": 33.9692, "elevation": 0, "isshow": "否" },
      { "stationname": "只乐", "sttaionno": "O6089", "areacode": "411024", "areaname": "鄢陵县", "type": "区域站", "lng": 114.15, "lat": 33.9683, "elevation": 0, "isshow": "否" },
      { "stationname": "大马", "sttaionno": "O6090", "areacode": "411024", "areaname": "鄢陵县", "type": "区域站", "lng": 114.1575, "lat": 34.0372, "elevation": 0, "isshow": "否" },
      { "stationname": "马栏", "sttaionno": "O6091", "areacode": "411024", "areaname": "鄢陵县", "type": "区域站", "lng": 114.2081, "lat": 34.0542, "elevation": 0, "isshow": "否" },
      { "stationname": "鄢陵望田", "sttaionno": "O6093", "areacode": "411024", "areaname": "鄢陵县", "type": "区域站", "lng": 114.171584, "lat": 33.899518, "elevation": 0, "isshow": "否" }
    ]
  },
  {
    "areacode": "411025",
    "areaname": "襄城县",
    "StationList": [
      { "stationname": "襄城", "sttaionno": "57182", "areacode": "411025", "areaname": "襄城县", "type": "国家站", "lng": 113.52, "lat": 33.85, "elevation": 0, "isshow": "是" },
      { "stationname": "寺郭", "sttaionno": "O2350", "areacode": "411025", "areaname": "襄城县", "type": "区域站", "lng": 113.4967, "lat": 34.0133, "elevation": 0, "isshow": "否" },
      { "stationname": "庾河", "sttaionno": "O2351", "areacode": "411025", "areaname": "襄城县", "type": "区域站", "lng": 113.5511, "lat": 33.9553, "elevation": 0, "isshow": "否" },
      { "stationname": "韩外", "sttaionno": "O2797", "areacode": "411025", "areaname": "襄城县", "type": "区域站", "lng": 113.4022, "lat": 33.9231, "elevation": 0, "isshow": "否" },
      { "stationname": "杨树郭", "sttaionno": "O2798", "areacode": "411025", "areaname": "襄城县", "type": "区域站", "lng": 113.6106, "lat": 33.8956, "elevation": 0, "isshow": "否" },
      { "stationname": "陈留侯", "sttaionno": "O2799", "areacode": "411025", "areaname": "襄城县", "type": "区域站", "lng": 113.5858, "lat": 33.9264, "elevation": 0, "isshow": "否" },
      { "stationname": "杨湾", "sttaionno": "O2800", "areacode": "411025", "areaname": "襄城县", "type": "区域站", "lng": 113.4122, "lat": 33.8722, "elevation": 0, "isshow": "否" },
      { "stationname": "库庄", "sttaionno": "O2926", "areacode": "411025", "areaname": "襄城县", "type": "区域站", "lng": 113.615401, "lat": 34.022656, "elevation": 0, "isshow": "否" },
      { "stationname": "茨沟", "sttaionno": "O6037", "areacode": "411025", "areaname": "襄城县", "type": "区域站", "lng": 113.5808, "lat": 33.8339, "elevation": 0, "isshow": "否" },
      { "stationname": "范湖", "sttaionno": "O6038", "areacode": "411025", "areaname": "襄城县", "type": "区域站", "lng": 113.68, "lat": 33.84, "elevation": 0, "isshow": "否" },
      { "stationname": "山头店", "sttaionno": "O6039", "areacode": "411025", "areaname": "襄城县", "type": "区域站", "lng": 113.5239, "lat": 33.7875, "elevation": 0, "isshow": "否" },
      { "stationname": "麦岭", "sttaionno": "O6040", "areacode": "411025", "areaname": "襄城县", "type": "区域站", "lng": 113.6378, "lat": 33.7775, "elevation": 0, "isshow": "否" },
      { "stationname": "姜庄", "sttaionno": "O6041", "areacode": "411025", "areaname": "襄城县", "type": "区域站", "lng": 113.7072, "lat": 33.7394, "elevation": 0, "isshow": "否" },
      { "stationname": "湛北", "sttaionno": "O6042", "areacode": "411025", "areaname": "襄城县", "type": "区域站", "lng": 113.4472, "lat": 33.7831, "elevation": 0, "isshow": "否" },
      { "stationname": "紫云", "sttaionno": "O6043", "areacode": "411025", "areaname": "襄城县", "type": "区域站", "lng": 113.4317, "lat": 33.8192, "elevation": 0, "isshow": "否" },
      { "stationname": "库庄", "sttaionno": "O6044", "areacode": "411025", "areaname": "襄城县", "type": "区域站", "lng": 113.55, "lat": 33.9, "elevation": 0, "isshow": "否" },
      { "stationname": "汾陈", "sttaionno": "O6045", "areacode": "411025", "areaname": "襄城县", "type": "区域站", "lng": 113.5289, "lat": 33.9717, "elevation": 0, "isshow": "否" },
      { "stationname": "双庙", "sttaionno": "O6046", "areacode": "411025", "areaname": "襄城县", "type": "区域站", "lng": 113.6358, "lat": 33.9086, "elevation": 0, "isshow": "否" },
      { "stationname": "颍阳", "sttaionno": "O6047", "areacode": "411025", "areaname": "襄城县", "type": "区域站", "lng": 113.6122, "lat": 33.9531, "elevation": 0, "isshow": "否" },
      { "stationname": "颍回", "sttaionno": "O6048", "areacode": "411025", "areaname": "襄城县", "type": "区域站", "lng": 113.5989, "lat": 33.9617, "elevation": 0, "isshow": "否" },
      { "stationname": "丁营", "sttaionno": "O6049", "areacode": "411025", "areaname": "襄城县", "type": "区域站", "lng": 113.6014, "lat": 33.7578, "elevation": 0, "isshow": "否" },
      { "stationname": "王洛", "sttaionno": "O6050", "areacode": "411025", "areaname": "襄城县", "type": "区域站", "lng": 113.4758, "lat": 33.9631, "elevation": 0, "isshow": "否" },
      { "stationname": "十里铺", "sttaionno": "O6051", "areacode": "411025", "areaname": "襄城县", "type": "区域站", "lng": 113.4325, "lat": 33.8811, "elevation": 0, "isshow": "否" },
      { "stationname": "城关", "sttaionno": "O6052", "areacode": "411025", "areaname": "襄城县", "type": "区域站", "lng": 113.4764, "lat": 33.8522, "elevation": 0, "isshow": "否" },
      { "stationname": "余庄", "sttaionno": "O6053", "areacode": "411025", "areaname": "襄城县", "type": "区域站", "lng": 113.4342, "lat": 33.8694, "elevation": 0, "isshow": "否" },
      { "stationname": "侯西", "sttaionno": "O6054", "areacode": "411025", "areaname": "襄城县", "type": "区域站", "lng": 113.3994, "lat": 33.8897, "elevation": 0, "isshow": "否" },
      { "stationname": "襄城农技站", "sttaionno": "O6056", "areacode": "411025", "areaname": "襄城县", "type": "区域站", "lng": 113.536264, "lat": 33.902491, "elevation": 0, "isshow": "否" },
      { "stationname": "北姚", "sttaionno": "O6058", "areacode": "411025", "areaname": "襄城县", "type": "区域站", "lng": 113.4997, "lat": 33.7803, "elevation": 0, "isshow": "否" },
      { "stationname": "襄城双庙", "sttaionno": "O6060", "areacode": "411025", "areaname": "襄城县", "type": "区域站", "lng": 113.59434, "lat": 33.87613, "elevation": 0, "isshow": "否" }
    ]
  },
  {
    "areacode": "411081",
    "areaname": "禹州市",
    "StationList": [
      { "stationname": "三古洞", "sttaionno": "O5927", "areacode": "411081", "areaname": "禹州市", "type": "区域站", "lng": 113.2128, "lat": 34.2786, "elevation": 0, "isshow": "否" },
      { "stationname": "魏井", "sttaionno": "O5928", "areacode": "411081", "areaname": "禹州市", "type": "区域站", "lng": 113.1336, "lat": 34.2444, "elevation": 0, "isshow": "否" },
      { "stationname": "吕沟", "sttaionno": "O5929", "areacode": "411081", "areaname": "禹州市", "type": "区域站", "lng": 113.3742, "lat": 34.1178, "elevation": 0, "isshow": "否" },
      { "stationname": "接官亭", "sttaionno": "O5930", "areacode": "411081", "areaname": "禹州市", "type": "区域站", "lng": 113.1817, "lat": 34.2522, "elevation": 0, "isshow": "否" },
      { "stationname": "禹州", "sttaionno": "57088", "areacode": "411081", "areaname": "禹州市", "type": "国家站", "lng": 113.5, "lat": 34.15, "elevation": 0, "isshow": "是" },
      { "stationname": "神垕", "sttaionno": "O2335", "areacode": "411081", "areaname": "禹州市", "type": "区域站", "lng": 113.2153, "lat": 34.1297, "elevation": 0, "isshow": "否" },
      { "stationname": "白沙", "sttaionno": "O2336", "areacode": "411081", "areaname": "禹州市", "type": "区域站", "lng": 113.2653, "lat": 34.3406, "elevation": 0, "isshow": "否" },
      { "stationname": "郑湾", "sttaionno": "O2337", "areacode": "411081", "areaname": "禹州市", "type": "区域站", "lng": 113.4156, "lat": 34.2578, "elevation": 0, "isshow": "否" },
      { "stationname": "褚河", "sttaionno": "O2338", "areacode": "411081", "areaname": "禹州市", "type": "区域站", "lng": 113.5444, "lat": 34.1139, "elevation": 0, "isshow": "否" },
      { "stationname": "小靳庄", "sttaionno": "O2339", "areacode": "411081", "areaname": "禹州市", "type": "区域站", "lng": 113.4989, "lat": 34.2458, "elevation": 0, "isshow": "否" },
      { "stationname": "圈刘", "sttaionno": "O2348", "areacode": "411081", "areaname": "禹州市", "type": "区域站", "lng": 113.5139, "lat": 34.0606, "elevation": 0, "isshow": "否" },
      { "stationname": "山货", "sttaionno": "O2352", "areacode": "411081", "areaname": "禹州市", "type": "区域站", "lng": 113.6139, "lat": 34.1878, "elevation": 0, "isshow": "否" },
      { "stationname": "庄沟", "sttaionno": "O2801", "areacode": "411081", "areaname": "禹州市", "type": "区域站", "lng": 113.2208, "lat": 34.3003, "elevation": 0, "isshow": "否" },
      { "stationname": "大鸿寨", "sttaionno": "O2802", "areacode": "411081", "areaname": "禹州市", "type": "区域站", "lng": 113.0808, "lat": 34.2528, "elevation": 0, "isshow": "否" },
      { "stationname": "马垌", "sttaionno": "O2803", "areacode": "411081", "areaname": "禹州市", "type": "区域站", "lng": 113.1786, "lat": 34.1764, "elevation": 0, "isshow": "否" },
      { "stationname": "楼子赵", "sttaionno": "O2804", "areacode": "411081", "areaname": "禹州市", "type": "区域站", "lng": 113.3194, "lat": 34.1164, "elevation": 0, "isshow": "否" },
      { "stationname": "马坟", "sttaionno": "O2805", "areacode": "411081", "areaname": "禹州市", "type": "区域站", "lng": 113.4514, "lat": 34.2269, "elevation": 0, "isshow": "否" },
      { "stationname": "魏庄", "sttaionno": "O2880", "areacode": "411081", "areaname": "禹州市", "type": "区域站", "lng": 113.507845, "lat": 34.167588, "elevation": 0, "isshow": "否" },
      { "stationname": "楼子赵", "sttaionno": "O2924", "areacode": "411081", "areaname": "禹州市", "type": "区域站", "lng": 113.495224, "lat": 34.148267, "elevation": 0, "isshow": "否" },
      { "stationname": "梁北", "sttaionno": "O5894", "areacode": "411081", "areaname": "禹州市", "type": "区域站", "lng": 113.4389, "lat": 34.1217, "elevation": 0, "isshow": "否" },
      { "stationname": "朱阁", "sttaionno": "O5895", "areacode": "411081", "areaname": "禹州市", "type": "区域站", "lng": 113.4644, "lat": 34.2, "elevation": 0, "isshow": "否" },
      { "stationname": "火龙", "sttaionno": "O5897", "areacode": "411081", "areaname": "禹州市", "type": "区域站", "lng": 113.3744, "lat": 34.1789, "elevation": 0, "isshow": "否" },
      { "stationname": "方山", "sttaionno": "O5898", "areacode": "411081", "areaname": "禹州市", "type": "区域站", "lng": 113.2083, "lat": 34.2561, "elevation": 0, "isshow": "否" },
      { "stationname": "顺店", "sttaionno": "O5899", "areacode": "411081", "areaname": "禹州市", "type": "区域站", "lng": 113.3367, "lat": 34.24, "elevation": 0, "isshow": "否" },
      { "stationname": "褚河", "sttaionno": "O5900", "areacode": "411081", "areaname": "禹州市", "type": "区域站", "lng": 113.5461, "lat": 34.1183, "elevation": 0, "isshow": "否" },
      { "stationname": "张得", "sttaionno": "O5901", "areacode": "411081", "areaname": "禹州市", "type": "区域站", "lng": 113.3961, "lat": 34.0831, "elevation": 0, "isshow": "否" },
      { "stationname": "鸿畅", "sttaionno": "O5902", "areacode": "411081", "areaname": "禹州市", "type": "区域站", "lng": 113.31, "lat": 34.0911, "elevation": 0, "isshow": "否" },
      { "stationname": "磨街", "sttaionno": "O5903", "areacode": "411081", "areaname": "禹州市", "type": "区域站", "lng": 113.1567, "lat": 34.1525, "elevation": 0, "isshow": "否" },
      { "stationname": "范坡", "sttaionno": "O5904", "areacode": "411081", "areaname": "禹州市", "type": "区域站", "lng": 113.5311, "lat": 34.0681, "elevation": 0, "isshow": "否" },
      { "stationname": "郭连", "sttaionno": "O5905", "areacode": "411081", "areaname": "禹州市", "type": "区域站", "lng": 113.5617, "lat": 34.1747, "elevation": 0, "isshow": "否" },
      { "stationname": "无梁", "sttaionno": "O5907", "areacode": "411081", "areaname": "禹州市", "type": "区域站", "lng": 113.5489, "lat": 34.2714, "elevation": 0, "isshow": "否" },
      { "stationname": "浅井", "sttaionno": "O5908", "areacode": "411081", "areaname": "禹州市", "type": "区域站", "lng": 113.4053, "lat": 34.2897, "elevation": 0, "isshow": "否" },
      { "stationname": "苌庄", "sttaionno": "O5909", "areacode": "411081", "areaname": "禹州市", "type": "区域站", "lng": 113.3236, "lat": 34.3239, "elevation": 0, "isshow": "否" },
      { "stationname": "花石", "sttaionno": "O5910", "areacode": "411081", "areaname": "禹州市", "type": "区域站", "lng": 113.2881, "lat": 34.2733, "elevation": 0, "isshow": "否" },
      { "stationname": "文殊", "sttaionno": "O5911", "areacode": "411081", "areaname": "禹州市", "type": "区域站", "lng": 113.2708, "lat": 34.1947, "elevation": 0, "isshow": "否" },
      { "stationname": "小吕", "sttaionno": "O5912", "areacode": "411081", "areaname": "禹州市", "type": "区域站", "lng": 113.4681, "lat": 34.0539, "elevation": 0, "isshow": "否" },
      { "stationname": "鸠山", "sttaionno": "O5913", "areacode": "411081", "areaname": "禹州市", "type": "区域站", "lng": 113.1678, "lat": 34.2203, "elevation": 0, "isshow": "否" },
      { "stationname": "古城", "sttaionno": "O5914", "areacode": "411081", "areaname": "禹州市", "type": "区域站", "lng": 113.5567, "lat": 34.2289, "elevation": 0, "isshow": "否" },
      { "stationname": "禹州古城", "sttaionno": "O5915", "areacode": "411081", "areaname": "禹州市", "type": "区域站", "lng": 113.55781, "lat": 34.231521, "elevation": 0, "isshow": "否" },
      { "stationname": "方岗", "sttaionno": "O5917", "areacode": "411081", "areaname": "禹州市", "type": "区域站", "lng": 113.3495, "lat": 34.1694, "elevation": 0, "isshow": "否" },
      { "stationname": "纸坊水库", "sttaionno": "O5918", "areacode": "411081", "areaname": "禹州市", "type": "区域站", "lng": 113.2314, "lat": 34.2233, "elevation": 0, "isshow": "否" },
      { "stationname": "函岭村", "sttaionno": "O5920", "areacode": "411081", "areaname": "禹州市", "type": "区域站", "lng": 113.3672, "lat": 34.365, "elevation": 0, "isshow": "否" },
      { "stationname": "麻地川", "sttaionno": "O5921", "areacode": "411081", "areaname": "禹州市", "type": "区域站", "lng": 113.4606, "lat": 34.2972, "elevation": 0, "isshow": "否" },
      { "stationname": "彭沟村", "sttaionno": "O5925", "areacode": "411081", "areaname": "禹州市", "type": "区域站", "lng": 113.1794, "lat": 34.2717, "elevation": 0, "isshow": "否" },
      { "stationname": "梨园沟", "sttaionno": "O5926", "areacode": "411081", "areaname": "禹州市", "type": "区域站", "lng": 113.3553, "lat": 34.3281, "elevation": 0, "isshow": "否" }
    ]
  },
  {
    "areacode": "411082",
    "areaname": "长葛市",
    "StationList": [
      { "stationname": "增福庙", "sttaionno": "O5962", "areacode": "411082", "areaname": "长葛市", "type": "区域站", "lng": 113.7564, "lat": 34.2694, "elevation": 0, "isshow": "否" },
      { "stationname": "董村", "sttaionno": "O5963", "areacode": "411082", "areaname": "长葛市", "type": "区域站", "lng": 113.9275, "lat": 34.2286, "elevation": 0, "isshow": "否" },
      { "stationname": "官亭", "sttaionno": "O5965", "areacode": "411082", "areaname": "长葛市", "type": "区域站", "lng": 113.7636, "lat": 34.2936, "elevation": 0, "isshow": "否" },
      { "stationname": "长葛老城", "sttaionno": "O5967", "areacode": "411082", "areaname": "禹州市", "type": "区域站", "lng": 113.837683, "lat": 34.258836, "elevation": 0, "isshow": "否" },
      { "stationname": "长葛后河", "sttaionno": "O5968", "areacode": "411082", "areaname": "禹州市", "type": "区域站", "lng": 113.815999, "lat": 34.317388, "elevation": 0, "isshow": "否" },
      { "stationname": "长葛气象局", "sttaionno": "O5974", "areacode": "411082", "areaname": "禹州市", "type": "区域站", "lng": 113.796237, "lat": 34.221648, "elevation": 0, "isshow": "否" },
      { "stationname": "长葛", "sttaionno": "57087", "areacode": "411082", "areaname": "长葛市", "type": "国家站", "lng": 113.73, "lat": 34.27, "elevation": 0, "isshow": "是" },
      { "stationname": "李河口", "sttaionno": "O2340", "areacode": "411082", "areaname": "长葛市", "type": "区域站", "lng": 113.9189, "lat": 34.2728, "elevation": 0, "isshow": "否" },
      { "stationname": "官亭", "sttaionno": "O2341", "areacode": "411082", "areaname": "长葛市", "type": "区域站", "lng": 113.8022, "lat": 34.2844, "elevation": 0, "isshow": "否" },
      { "stationname": "长葛董天龙", "sttaionno": "O2342", "areacode": "411082", "areaname": "长葛市", "type": "区域站", "lng": 114.0136, "lat": 34.1906, "elevation": 0, "isshow": "否" },
      { "stationname": "石固", "sttaionno": "O2343", "areacode": "411082", "areaname": "长葛市", "type": "区域站", "lng": 113.6717, "lat": 34.1633, "elevation": 0, "isshow": "否" },
      { "stationname": "金桥", "sttaionno": "O2344", "areacode": "411082", "areaname": "长葛市", "type": "区域站", "lng": 113.7822, "lat": 34.2072, "elevation": 0, "isshow": "否" },
      { "stationname": "黑董", "sttaionno": "O2794", "areacode": "411082", "areaname": "长葛市", "type": "区域站", "lng": 113.7431, "lat": 34.3078, "elevation": 0, "isshow": "否" },
      { "stationname": "坡胡", "sttaionno": "O2795", "areacode": "411082", "areaname": "长葛市", "type": "区域站", "lng": 113.6517, "lat": 34.2206, "elevation": 0, "isshow": "否" },
      { "stationname": "蔡寨", "sttaionno": "O2796", "areacode": "411082", "areaname": "长葛市", "type": "区域站", "lng": 113.8681, "lat": 34.1922, "elevation": 0, "isshow": "否" },
      { "stationname": "刘沙沃", "sttaionno": "O2881", "areacode": "411082", "areaname": "禹州市", "type": "区域站", "lng": 113.970761, "lat": 34.206068, "elevation": 0, "isshow": "否" },
      { "stationname": "黑董", "sttaionno": "O2923", "areacode": "411082", "areaname": "禹州市", "type": "区域站", "lng": 113.815999, "lat": 34.317388, "elevation": 0, "isshow": "否" },
      { "stationname": "大周", "sttaionno": "O5951", "areacode": "411082", "areaname": "长葛市", "type": "区域站", "lng": 113.8667, "lat": 34.2794, "elevation": 0, "isshow": "否" },
      { "stationname": "城关", "sttaionno": "O5952", "areacode": "411082", "areaname": "长葛市", "type": "区域站", "lng": 113.7644, "lat": 34.2233, "elevation": 0, "isshow": "否" },
      { "stationname": "后河", "sttaionno": "O5953", "areacode": "411082", "areaname": "长葛市", "type": "区域站", "lng": 113.6633, "lat": 34.2456, "elevation": 0, "isshow": "否" },
      { "stationname": "坡胡", "sttaionno": "O5954", "areacode": "411082", "areaname": "长葛市", "type": "区域站", "lng": 113.6539, "lat": 34.2164, "elevation": 0, "isshow": "否" },
      { "stationname": "古桥", "sttaionno": "O5955", "areacode": "411082", "areaname": "长葛市", "type": "区域站", "lng": 114.0153, "lat": 34.2319, "elevation": 0, "isshow": "否" },
      { "stationname": "老城镇", "sttaionno": "O5956", "areacode": "411082", "areaname": "长葛市", "type": "区域站", "lng": 113.8456, "lat": 34.2386, "elevation": 0, "isshow": "否" },
      { "stationname": "石象", "sttaionno": "O5959", "areacode": "411082", "areaname": "长葛市", "type": "区域站", "lng": 113.9356, "lat": 34.1944, "elevation": 0, "isshow": "否" },
      { "stationname": "南席", "sttaionno": "O5960", "areacode": "411082", "areaname": "长葛市", "type": "区域站", "lng": 114.0928, "lat": 34.2172, "elevation": 0, "isshow": "否" }
    ]
  }
]
